SL-3 R/B                
1 13403U 82079B   26034.47129270  .00005494  00000+0  22199-3 0  9991
2 13403  81.1435 233.4702 0024242 282.8463  77.0062 15.24302145372486
SL-14 R/B               
1 13553U 82092B   26034.45169876  .00000643  00000+0  69398-4 0  9990
2 13553  82.5697 173.4132 0021617  57.2821   4.9955 14.86625960323848
SL-3 R/B                
1 13819U 83010B   26034.51587791  .00014700  00000+0  30772-3 0  9995
2 13819  81.1014  44.1085 0017532 160.5521 199.6396 15.45145141352665
SL-3 R/B                
1 14208U 83075B   26034.46395587  .00013131  00000+0  35620-3 0  9997
2 14208  97.6122  37.7749 0021901 357.9340   2.1809 15.37512034324892
COSMOS 1536             
1 14699U 84013A   26034.30537619  .00008297  00000+0  34677-3 0  9999
2 14699  82.5478 142.0083 0015253  47.9462 312.3069 15.23351625267384
SL-14 R/B               
1 14820U 84027B   26034.35065896  .00000513  00000+0  55818-4 0  9992
2 14820  82.5408 277.2248 0019549  87.3646 272.9808 14.85941923242536
SL-8 R/B                
1 15483U 85006B   26034.30334648  .00000293  00000+0  10604-3 0  9993
2 15483  74.0475 324.4204 0019608 248.6569 265.0970 14.37764769149088
SL-12 R/B(2)            
1 15772U 85042D   26034.50795348  .00000085  00000+0  59511-4 0  9994
2 15772  71.1083 159.9427 0035268 182.5646 248.4146 14.21971951109534
SL-14 R/B               
1 15945U 85069B   26034.48047281  .00000538  00000+0  58167-4 0  9997
2 15945  82.5239  57.1090 0017531 308.9484  51.0169 14.86391777167751
SL-16 R/B               
1 16182U 85097B   26034.52711626  .00000176  00000+0  11244-3 0  9990
2 16182  71.0012 212.4716 0009373 299.8218 119.0705 14.16595301 82395
SL-14 R/B               
1 16496U 86006B   26034.46651055  .00000867  00000+0  89320-4 0  9999
2 16496  82.5277 291.9476 0077404  27.2168 333.3072 14.86765260144123
COSMOS 1743             
1 16719U 86034A   26034.45719461  .00036300  00000+0  51893-3 0  9997
2 16719  82.5337 109.6860 0005301  66.4193 293.7617 15.56047386174925
